NORAD_CAT_ID,OBJECT_NAME,OBJECT_TYPE,EPOCH,MEAN_MOTION,ECCENTRICITY,INCLINATION,RA_OF_ASC_NODE,ARG_OF_PERICENTER,MEAN_ANOMALY,BSTAR,MEAN_MOTION_DOT,MEAN_MOTION_DDOT,TLE_LINE0,TLE_LINE1,TLE_LINE2,SEMIMAJOR_AXIS,PERIOD,APOGEE,PERIGEE,DECAYED
53559.0,STARLINK-4508,PAYLOAD,2024-05-23 06:37:32,15.08850737,0.0001545,53.2164,126.3904,80.8304,279.2863,0.00012383,1.684e-05,0.0,0 STARLINK-4508,1 53559U 22101AJ  24144.27607016  .00001684  00000-0  12383-3 0  9996,2 53559  53.2164 126.3904 0001545  80.8304 279.2863 15.08850737 97369,6917.848,95.437,540.781,538.644,0.0
53559.0,STARLINK-4508,PAYLOAD,2024-05-24 04:52:56,15.08837122,0.0001479,53.217,122.2252,86.6083,273.5078,-6.6315e-06,-3.93e-06,0.0,0 STARLINK-4508,1 53559U 22101AJ  24145.20343724 -.00000393  00000-0 -66315-5 0  9997,2 53559  53.2170 122.2252 0001479  86.6083 273.5078 15.08837122 97505,6917.889,95.438,540.777,538.731,0.0
53559.0,STARLINK-4508,PAYLOAD,2024-05-24 22:22:11,15.0883856,0.0001298,53.2172,118.9538,93.7161,266.398,-4.7008e-05,-1.036e-05,0.0,0 STARLINK-4508,1 53559U 22101AJ  24145.93207839 -.00001036  00000-0 -47008-4 0  9995,2 53559  53.2172 118.9538 0001298  93.7161 266.3980 15.08838560 97612,6917.885,95.438,540.648,538.852,0.0
53559.0,STARLINK-4508,PAYLOAD,2024-05-25 07:54:30,15.08845437,0.0001558,53.2178,117.1695,104.2414,255.8751,-3.9912e-05,-9.23e-06,0.0,0 STARLINK-4508,1 53559U 22101AJ  24146.32951562 -.00000923  00000-0 -39912-4 0  9997,2 53559  53.2178 117.1695 0001558 104.2414 255.8751 15.08845437 97677,6917.864,95.437,540.807,538.651,0.0
53559.0,STARLINK-4508,PAYLOAD,2024-05-26 04:34:31,15.08838418,0.0001259,53.2173,113.3039,84.0677,276.0458,0.0001292,1.769e-05,0.0,0 STARLINK-4508,1 53559U 22101AJ  24147.19063949  .00001769  00000-0  12920-3 0  9992,2 53559  53.2173 113.3039 0001259  84.0677 276.0458 15.08838418 97801,6917.885,95.438,540.621,538.879,0.0
53559.0,STARLINK-4508,PAYLOAD,2024-05-26 07:45:17,15.0883848,0.0001287,53.2174,112.709,90.7536,269.3603,0.00013468,1.856e-05,0.0,0 STARLINK-4508,1 53559U 22101AJ  24147.32311946  .00001856  00000-0  13468-3 0  9995,2 53559  53.2174 112.7090 0001287  90.7536 269.3603 15.08838480 97829,6917.885,95.438,540.64,538.86,0.0
53559.0,STARLINK-4508,PAYLOAD,2024-05-26 22:03:46,15.08832941,0.0001284,53.2172,110.032,89.6641,270.4498,5.0366e-05,5.14e-06,0.0,0 STARLINK-4508,1 53559U 22101AJ  24147.91928737  .00000514  00000-0  50366-4 0  9991,2 53559  53.2172 110.0320 0001284  89.6641 270.4498 15.08832941 97916,6917.902,95.438,540.655,538.879,0.0
53559.0,STARLINK-4508,PAYLOAD,2024-05-27 02:49:55,15.08835902,0.0001281,53.2173,109.1399,89.3758,270.7381,7.0452e-05,8.33e-06,0.0,0 STARLINK-4508,1 53559U 22101AJ  24148.11800555  .00000833  00000-0  70452-4 0  9993,2 53559  53.2173 109.1399 0001281  89.3758 270.7381 15.08835902 97942,6917.893,95.438,540.644,538.872,0.0
53559.0,STARLINK-4508,PAYLOAD,2024-05-27 13:57:37,15.08833755,0.000207,53.2189,107.0717,139.4568,220.6578,1.3927e-06,-2.66e-06,0.0,0 STARLINK-4508,1 53559U 22101AJ  24148.58168967 -.00000266  00000-0  13927-5 0  9994,2 53559  53.2189 107.0717 0002070 139.4568 220.6578 15.08833755 98018,6917.899,95.438,541.196,538.332,0.0
53559.0,STARLINK-4508,PAYLOAD,2024-05-28 04:16:06,15.08811526,0.0001497,53.2179,104.3805,100.6392,259.4769,0.00037397,5.664e-05,0.0,0 STARLINK-4508,1 53559U 22101AJ  24149.17785408  .00005664  00000-0  37397-3 0  9996,2 53559  53.2179 104.3805 0001497 100.6392 259.4769 15.08811526 98106,6917.967,95.439,540.868,538.797,0.0
53559.0,STARLINK-4508,PAYLOAD,2024-05-28 07:26:52,15.08834753,0.000139,53.2181,103.7868,100.0705,260.0444,3.2398e-05,2.28e-06,0.0,0 STARLINK-4508,1 53559U 22101AJ  24149.31033001  .00000228  00000-0  32398-4 0  9995,2 53559  53.2181 103.7868 0001390 100.0705 260.0444 15.08834753 98122,6917.896,95.438,540.723,538.8,0.0
53559.0,STARLINK-4508,PAYLOAD,2024-05-29 04:06:52,15.08841114,0.0001259,53.2178,99.9227,93.6681,266.4455,8.7075e-05,1.098e-05,0.0,0 STARLINK-4508,1 53559U 22101AJ  24150.17144615  .00001098  00000-0  87075-4 0  9993,2 53559  53.2178  99.9227 0001259  93.6681 266.4455 15.08841114 98252,6917.877,95.437,540.613,538.871,0.0
53559.0,STARLINK-4508,PAYLOAD,2024-05-29 05:42:15,15.08843001,0.0001327,53.218,99.6252,102.8004,257.3137,9.9647e-05,1.298e-05,0.0,0 STARLINK-4508,1 53559U 22101AJ  24150.23768420  .00001298  00000-0  99647-4 0  9996,2 53559  53.2180  99.6252 0001327 102.8004 257.3137 15.08843001 98262,6917.871,95.437,540.654,538.818,0.0
53559.0,STARLINK-4508,PAYLOAD,2024-05-30 05:33:03,15.08842627,0.0001356,53.2182,95.1648,105.8196,254.2946,9.685e-05,1.254e-05,0.0,0 STARLINK-4508,1 53559U 22101AJ  24151.23128654  .00001254  00000-0  96850-4 0  9991,2 53559  53.2182  95.1648 0001356 105.8196 254.2946 15.08842627 98415,6917.872,95.437,540.675,538.799,0.0
53559.0,STARLINK-4508,PAYLOAD,2024-05-31 02:13:04,15.08835789,0.0001898,53.2205,91.2892,65.9517,294.1673,-1.6072e-05,-5.44e-06,0.0,0 STARLINK-4508,1 53559U 22101AJ  24152.09241865 -.00000544  00000-0 -16072-4 0  9997,2 53559  53.2205  91.2892 0001898  65.9517 294.1673 15.08835789 98548,6917.893,95.438,541.071,538.445,0.0
53559.0,STARLINK-4508,PAYLOAD,2024-05-31 05:23:51,15.08835514,0.0001718,53.2205,90.6964,78.4175,281.701,-2.8657e-05,-7.44e-06,0.0,0 STARLINK-4508,1 53559U 22101AJ  24152.22489900 -.00000744  00000-0 -28657-4 0  9990,2 53559  53.2205  90.6964 0001718  78.4175 281.7010 15.08835514 98566,6917.894,95.438,540.948,538.571,0.0
53559.0,STARLINK-4508,PAYLOAD,2024-06-01 02:03:50,15.08853525,0.0001266,53.2183,86.8372,104.6518,255.4614,0.00010134,1.326e-05,0.0,0 STARLINK-4508,1 53559U 22101AJ  24153.08600067  .00001326  00000-0  10134-3 0  9999,2 53559  53.2183  86.8372 0001266 104.6518 255.4614 15.08853525 98696,6917.839,95.437,540.58,538.828,0.0
53559.0,STARLINK-4508,PAYLOAD,2024-06-01 05:14:36,15.08852624,0.0001327,53.2183,86.2424,113.7656,246.3475,0.00017466,2.494e-05,0.0,0 STARLINK-4508,1 53559U 22101AJ  24153.21847816  .00002494  00000-0  17466-3 0  9991,2 53559  53.2183  86.2424 0001327 113.7656 246.3475 15.08852624 98716,6917.842,95.437,540.625,538.789,0.0
53559.0,STARLINK-4508,PAYLOAD,2024-06-01 19:33:06,15.0883425,0.000136,53.218,83.5677,98.5356,261.579,0.00011502,1.543e-05,0.0,0 STARLINK-4508,1 53559U 22101AJ  24153.81465403  .00001543  00000-0  11502-3 0  9994,2 53559  53.2180  83.5677 0001360  98.5356 261.5790 15.08834250 98801,6917.898,95.438,540.704,538.822,0.0
53559.0,STARLINK-4508,PAYLOAD,2024-06-02 01:54:38,15.08838456,0.0001421,53.2177,82.3794,91.5447,268.5708,0.00016125,2.279e-05,0.0,0 STARLINK-4508,1 53559U 22101AJ  24154.07961352  .00002279  00000-0  16125-3 0  9990,2 53559  53.2177  82.3794 0001421  91.5447 268.5708 15.08838456 98848,6917.885,95.438,540.733,538.767,0.0
53559.0,STARLINK-4508,PAYLOAD,2024-06-02 19:23:52,15.08844905,0.0001279,53.2181,79.1093,86.9456,273.1682,5.218e-05,5.43e-06,0.0,0 STARLINK-4508,1 53559U 22101AJ  24154.80824934  .00000543  00000-0  52180-4 0  9999,2 53559  53.2181  79.1093 0001279  86.9456 273.1682 15.08844905 98959,6917.865,95.437,540.615,538.846,0.0
53559.0,STARLINK-4508,PAYLOAD,2024-06-03 11:17:43,15.08851225,0.0001389,53.2179,76.1345,88.2717,271.8435,7.7969e-05,9.54e-06,0.0,0 STARLINK-4508,1 53559U 22101AJ  24155.47064407  .00000954  00000-0  77969-4 0  9992,2 53559  53.2179  76.1345 0001389  88.2717 271.8435 15.08851225 99056,6917.846,95.437,540.672,538.75,0.0
53559.0,STARLINK-4508,PAYLOAD,2024-06-04 01:36:12,15.08846453,0.0001716,53.218,73.4589,84.4691,275.6497,0.00018495,2.657e-05,0.0,0 STARLINK-4508,1 53559U 22101AJ  24156.06680726  .00002657  00000-0  18495-3 0  9996,2 53559  53.2180  73.4589 0001716  84.4691 275.6497 15.08846453 99148,6917.861,95.437,540.913,538.539,0.0
53559.0,STARLINK-4508,PAYLOAD,2024-06-04 11:08:31,15.08843486,0.0001494,53.2187,71.6746,80.7357,279.3804,9.3045e-05,1.193e-05,0.0,0 STARLINK-4508,1 53559U 22101AJ  24156.46424773  .00001193  00000-0  93045-4 0  9997,2 53559  53.2187  71.6746 0001494  80.7357 279.3804 15.08843486 99204,6917.87,95.437,540.768,538.701,0.0
53559.0,STARLINK-4508,PAYLOAD,2024-06-04 19:05:26,15.0884018,0.0001531,53.2175,70.1889,87.3376,272.7792,-2.024e-05,-6.1e-06,0.0,0 STARLINK-4508,1 53559U 22101AJ  24156.79544909 -.00000610  00000-0 -20240-4 0  9999,2 53559  53.2175  70.1889 0001531  87.3376 272.7792 15.08840180 99255,6917.88,95.438,540.804,538.686,0.0
53559.0,STARLINK-4508,PAYLOAD,2024-06-05 03:02:21,15.08852105,0.0001243,53.2174,68.6997,85.0792,275.0342,0.00014422,2.009e-05,0.0,0 STARLINK-4508,1 53559U 22101AJ  24157.12664094  .00002009  00000-0  14422-3 0  9991,2 53559  53.2174  68.6997 0001243  85.0792 275.0342 15.08852105 99306,6917.843,95.437,540.568,538.849,0.0
53559.0,STARLINK-4508,PAYLOAD,2024-06-05 10:59:17,15.08841995,0.0001417,53.2187,67.2127,76.2468,283.8682,1.6469e-05,-2.6e-07,0.0,0 STARLINK-4508,1 53559U 22101AJ  24157.45784600 -.00000026  00000-0  16469-4 0  9995,2 53559  53.2187  67.2127 0001417  76.2468 283.8682 15.08841995 99359,6917.874,95.437,540.72,538.759,0.0
53559.0,STARLINK-4508,PAYLOAD,2024-06-06 02:53:10,15.08827269,0.0001603,53.2179,64.2416,82.7802,277.3372,-3.9015e-05,-9.09e-06,0.0,0 STARLINK-4508,1 53559U 22101AJ  24158.12025812 -.00000909  00000-0 -39015-4 0  9996,2 53559  53.2179  64.2416 0001603  82.7802 277.3372 15.08827269 99452,6917.919,95.438,540.893,538.675,0.0
53559.0,STARLINK-4508,PAYLOAD,2024-06-06 10:50:05,15.08832193,0.0001383,53.2174,62.7545,91.8188,268.2963,3.1458e-05,2.13e-06,0.0,0 STARLINK-4508,1 53559U 22101AJ  24158.45145662  .00000213  00000-0  31458-4 0  9997,2 53559  53.2174  62.7545 0001383  91.8188 268.2963 15.08832193 99509,6917.904,95.438,540.726,538.813,0.0
53559.0,STARLINK-4508,PAYLOAD,2024-06-06 17:11:38,15.08832923,0.0001376,53.2184,61.5659,92.4576,267.6573,8.467e-05,1.06e-05,0.0,0 STARLINK-4508,1 53559U 22101AJ  24158.71641853  .00001060  00000-0  84670-4 0  9994,2 53559  53.2184  61.5659 0001376  92.4576 267.6573 15.08832923 99548,6917.902,95.438,540.719,538.815,0.0
